BY70-2                  
1 45857U 20042B   24114.58018715  .00129667  00000+0  63964-2 0  9994
2 45857  97.9087 205.1348 0003045  28.8884 331.2516 15.17315525206233
SALSAT                  
1 46495U 20068K   24114.43647475  .00013543  00000+0  78673-3 0  9995
2 46495  97.8121  72.4083 0015453 135.3872 224.8604 15.12134286196037
UVSQ-SAT                
1 47438U 21006AB  24114.11461916  .00067413  00000+0  15837-2 0  9992
2 47438  97.3330 174.0878 0006991  65.4389 294.7586 15.41752373180231
LEDSAT                  
1 49069U 21073D   24114.15622904  .00030166  00000+0  12904-2 0  9995
2 49069  97.4409 185.7334 0021405 117.5918 242.7495 15.22561816148078
XW-3 (CAS-9)            
1 50466U 21131B   24114.56520470  .00001955  00000+0  64093-3 0  9994
2 50466  98.5271 199.8966 0003002 293.7865  66.3008 14.39517762122146
TEVEL-3                 
1 50988U 22002E   24114.53748256  .00134324  00000+0  21645-2 0  9994
2 50988  97.3837 188.2732 0005260 199.6379 160.4671 15.52446983126536
TEVEL-8                 
1 50989U 22002F   24114.57390930  .00132425  00000+0  21439-2 0  9992
2 50989  97.3862 188.3990 0005323 201.5642 158.5387 15.52322837126531
TEVEL-5                 
1 50998U 22002Q   24114.56991875  .00156880  00000+0  22318-2 0  9994
2 50998  97.3829 189.3754 0005649 195.5530 164.5552 15.55804716126616
TEVEL-6                 
1 50999U 22002R   24114.57344028  .00154481  00000+0  22081-2 0  9990
2 50999  97.3824 189.3539 0005615 195.2644 164.8442 15.55684200126614
TEVEL-1                 
1 51013U 22002AF  24114.56251691  .00133017  00000+0  21550-2 0  9992
2 51013  97.3828 188.1724 0005222 196.2834 163.8251 15.52301520126531
TEVEL-7                 
1 51062U 22002CG  24114.56504137  .00137416  00000+0  22141-2 0  9996
2 51062  97.3847 188.3651 0005219 196.5029 163.6054 15.52438677126535
TEVEL-4                 
1 51063U 22002CH  24114.27361577  .00130549  00000+0  21354-2 0  9999
2 51063  97.3850 187.9832 0005367 195.2697 164.8395 15.52041062126480
TEVEL-2                 
1 51069U 22002CP  24114.53608155  .00134346  00000+0  21619-2 0  9993
2 51069  97.3833 188.2395 0005233 198.2937 161.8128 15.52485158126532
GREENCUBE               
1 53106U 22080B   24114.18200038 -.00000003  00000+0  00000+0 0  9993
2 53106  70.1426 211.6253 0007954 118.4778 241.6683  6.42557291 41734
KUZBASS-300 (RS34S)     
1 53375U 22096F   24114.54624001  .00427515  00000+0  18798-2 0  9994
2 53375  97.3838  33.9057 0007412 123.4526 236.7453 15.83453303 95905
UTMN (RS23S)            
1 53376U 22096G   24114.48737445  .00577045  13373-3  17534-2 0  9997
2 53376  97.3799  34.8565 0008118 134.0642 226.1302 15.91989208 95966
MIET-AIS (RS28S)        
1 53377U 22096H   24114.17916382  .00248641  00000+0  18012-2 0  9991
2 53377  97.3898  32.4801 0005901 118.1587 242.0273 15.72686933 95773
KAI-1 (RS26S)           
1 53378U 22096J   24114.58875341  .00102675  00000+0  12936-2 0  9991
2 53378  97.3985  30.8326 0004432 118.6171 241.5532 15.59267109 95695
ISOI (RS19S)            
1 53381U 22096M   24114.39483234  .00257906  00000+0  16776-2 0  9994
2 53381  97.3928  33.5622 0005358 113.0159 247.1672 15.75186962 95869
CUBESX-HSE-2 (RS21S)    
1 53383U 22096P   24114.55557509  .00625523  15637-3  19985-2 0  9996
2 53383  97.3805  35.0962 0007237 130.0088 230.1821 15.91026025 95989
SIREN (RS30S)           
1 53384U 22096Q   24114.60437676  .00164321  00000+0  15401-2 0  9992
2 53384  97.3946  32.4080 0004020  98.4877 261.6839 15.66680803 95809
CAS-5A (FO-118)         
1 54684U 22167C   24114.60102948  .00042262  00000+0  16071-2 0  9999
2 54684  97.5985 258.3018 0010012 336.1676  23.9097 15.26605427 75960
STRATOSAT-TK 1 (RS52S)  
1 57167U 23091B   24114.60177858  .00022195  00000+0  13498-2 0  9990
2 57167  97.6173 167.8858 0014080 307.9565  52.0392 15.10375059 45312
UMKA 1 (RS40S)          
1 57172U 23091G   24114.55914488  .00010486  00000+0  70740-3 0  9992
2 57172  97.6171 167.1735 0015802 310.2699  49.7146 15.06717896 45269
CUBESX-HSE 3 (RS42S)    
1 57178U 23091N   24114.55830227  .00014966  00000+0  97964-3 0  9990
2 57178  97.6210 167.4722 0016232 303.7881  56.1800 15.07739700 45275
MONITOR-4 (RS57S)       
1 57182U 23091S   24114.59674189  .00012703  00000+0  84097-3 0  9992
2 57182  97.6199 167.3764 0016242 305.4451  54.5260 15.07360316 45279
MONITOR-2 (RS39S)       
1 57184U 23091U   24114.59512178  .00007923  00000+0  53304-3 0  9998
2 57184  97.6205 167.5515 0012664 299.6870  60.3096 15.06939674 45289
SVYATOBOR 1 (RS60S)     
1 57187U 23091X   24114.53539956  .00012399  00000+0  80396-3 0  9992
2 57187  97.6208 167.7889 0012123 296.5723  63.4262 15.08182301 45293
VIZARD-METEO (RS38S)    
1 57189U 23091Z   24114.53674376  .00014652  00000+0  92045-3 0  9998
2 57189  97.6200 168.0652 0011046 293.7799  66.2271 15.09314098 45319
NANOZOND 1 (RS49S)      
1 57190U 23091AA  24114.55361086  .00019833  00000+0  11790-2 0  9996
2 57190  97.6174 168.4019 0009609 297.6349  62.3905 15.11270381 45341
POLYTECH-UNIVERSE 3 (R*)
1 57191U 23091AB  24114.59690564  .00008936  00000+0  60079-3 0  9994
2 57191  97.6172 167.2681 0018340 317.4535  42.5270 15.06853395 45275
UTMN 2 (RS27S)          
1 57203U 23091AP  24114.57807924  .00013806  00000+0  87680-3 0  9995
2 57203  97.6190 168.0083 0011690 293.4990  66.5009 15.08922695 45316
ARCCUBE 1 (RS25S)       
1 57205U 23091AR  24114.56558092  .00024552  00000+0  14259-2 0  9996
2 57205  97.6145 168.4615 0009879 298.6513  61.3723 15.12065147 45352
KUZGTU 1 (RS47S)        
1 57217U 23091AV  24114.56245785  .00014426  00000+0  94719-3 0  9990
2 57217  97.6183 167.3704 0016206 305.1481  54.8228 15.07634148 45279
HADES-D (SO-121)        
1 58567U 23174CY  24114.20352683  .00064937  00000+0  26757-2 0  9996
2 58567  97.4585 189.9969 0013124  68.3464 291.9169 15.23763600 25393
